C/2022 U2 (ATLAS),e,48.2486,304.4112,147.9964,98.07086,0.0010148,0.98644589,0.0000,01/14.2770/2023,2000,g 16.0,4.0
# From MPC182880
C/2022 U3 (Bok),h,07/28.6649/2024,33.6616,272.7880,189.1296,1.000488,4.826661,2000,7.5,4.0
# From MPEC 2023-W26
C/2022 U4 (Bok),e,52.0510,132.9160,88.9890,2829,0.0000065,0.99897585,0.0000,08/03.6315/2023,2000,g 10.5,4.0
# From MPEC 2024-H50
C/2022 V2 (Lemmon),e,98.9016,332.8585,168.9520,36.65998,0.0044403,0.94369872,2.2785,03/29.0/2025,2000,g 12.0,4.0
# From MPEC 2023-CD7
P/2022 W1 (Rankin),e,13.4646,38.8268,17.9216,6.975027,0.0535039,0.51654158,49.4825,03/29.0/2025,2000,g 12.5,4.0
# From MPEC 2024-EF7
C/2022 W2 (ATLAS),e,63.5048,320.4392,123.3080,343.6174,0.0001547,0.99090718,0.0000,03/08.7616/2023,2000,g 11.5,4.0
# From MPEC 2024-C04
C/2022 W3 (Leonard),e,103.5789,132.2977,116.5173,278.3550,0.0002122,0.99498058,0.0000,06/22.8054/2023,2000,g 13.0,4.0
# From MPEC 2023-M14
C/2022 Y1 (Hogan),e,18.8556,285.8788,174.8669,12.61035,0.0220097,0.76527226,18.7600,03/29.0/2025,2000,g  9.0,4.0
# From MPEC 2023-TM6
C/2022 Y2 (Lemmon),e,165.8876,216.3593,105.4489,19.70861,0.0112647,0.87104526,8.3090,03/29.0/2025,2000,g 13.5,4.0
# From MPEC 2024-GJ3
C/2023 A1 (Leonard),e,94.7402,318.2719,159.2577,221.1571,0.0002997,0.99169957,0.0000,03/18.6121/2023,2000,g 14.5,4.0
# From MPEC 2023-J95
C/2023 A2 (SWAN),e,94.7065,94.5076,142.5046,412.4203,0.0001177,0.99770768,0.0000,01/20.3676/2023,2000,g 13.5,4.0
# From MPC182880
C/2023 A3 (Tsuchinshan-ATLAS),h,09/27.7423/2024,139.1113,21.5671,308.5013,1.000112,0.391487,2000,6.5,3.2
# From MPEC 2024-F34
P/2023 B1 (PANSTARRS),e,14.5885,78.5592,81.6675,7.064584,0.0524897,0.13081495,36.5258,03/29.0/2025,2000,g  5.5,4.0
# From MPEC 2023-XP6
C/2023 B2 (ATLAS),e,40.7675,218.0980,317.3615,594.1525,0.0000681,0.99706992,0.0000,03/10.5769/2023,2000,g 14.5,4.0
# From MPEC 2023-F81
P/2023 B3 (PANSTARRS),e,9.1569,153.9888,240.3667,4.549866,0.1015561,0.12248534,169.0828,03/29.0/2025,2000,g 10.5,4.0
# From MPC182880
C/2023 C2 (ATLAS),e,48.3214,301.0047,357.4517,2454,0.0000081,0.99903479,0.0000,11/16.7984/2024,2000,g  7.0,4.0
# From MPEC 2024-D33
C/2023 E1 (ATLAS),e,38.2807,164.5171,105.9572,19.27150,0.0116501,0.94667920,7.4222,03/29.0/2025,2000,g 15.5,4.0
# From MPEC 2023-N01
C/2023 F1 (PANSTARRS),e,131.6932,25.3079,216.7343,248.3584,0.0002518,0.99311455,0.0000,06/28.1549/2023,2000,g 16.0,4.0
# From MPC182880
C/2023 F3 (ATLAS),h,02/02.6227/2025,145.9637,109.4647,265.5312,1.003586,5.190796,2000,6.0,4.0
# From MPC182880
C/2023 H1 (PANSTARRS),e,21.7825,292.6467,333.7560,760.9618,0.0000470,0.99415521,0.0000,11/28.6658/2024,2000,g  8.5,4.0
# From MPEC 2024-GJ3
C/2023 H2 (Lemmon),e,113.7499,217.0646,150.6798,246.5829,0.0002545,0.99636985,0.0000,10/29.1623/2023,2000,g 14.0,4.0
# From MPEC 2023-R20
C/2023 H3 (PANSTARRS),e,2.4889,55.0927,193.2725,13.61604,0.0196168,0.61574408,7.9365,03/29.0/2025,2000,g 10.0,4.0
# From MPEC 2023-SQ0
A/2023 H4,e,76.5735,230.8262,65.0186,143.3846,0.0005741,0.98518792,0.0000,08/08.7808/2023,2000,g 18.0,2.0
# From MPC182880
C/2023 H5 (Lemmon),h,06/30.2414/2025,97.8555,159.4787,60.0936,1.000447,4.312641,2000,7.0,4.0
# From MPEC 2024-UA9
P/2023 JN16 (Lemmon),e,3.7025,11.8756,353.1713,2.695465,0.2227171,0.14682128,19.6744,03/29.0/2025,2000,g 14.0,4.0
# From MPEC 2024-GJ3
C/2023 K1 (ATLAS),e,137.9976,223.6992,337.4235,641.2281,0.0000607,0.99682061,0.0000,09/07.6198/2023,2000,g 13.0,4.0
# From MPEC 2023-N01
P/2023 M1 (PANSTARRS),e,12.2890,216.8598,79.6974,6.841973,0.0550721,0.58689031,25.9197,03/29.0/2025,2000,g 13.5,4.0
# From MPEC 2024-TD8
P/2023 M2 (PANSTARRS),e,19.7282,83.2490,243.3869,5.577393,0.0748268,0.37002521,45.7082,03/29.0/2025,2000,g 12.5,4.0
# From MPEC 2024-TP3
P/2023 M4 (ATLAS),e,7.5920,296.2875,320.5455,5.447207,0.0775253,0.27892749,83.7391,03/29.0/2025,2000,g  7.5,4.0
# From MPEC 2024-MB8
C/2023 P1 (Nishimura),e,132.4774,66.8369,116.2618,56.54510,0.0023180,0.99602935,0.0000,09/17.6355/2023,2000,g 10.0,4.0
# From MPC182880
C/2023 Q1 (PANSTARRS),h,12/01.1418/2024,36.6435,7.1254,84.4198,1.005060,2.575724,2000,10.0,4.0
# From MPEC 2024-N80
C/2023 Q2 (PANSTARRS),e,104.0619,92.6797,171.6970,347.2939,0.0001523,0.99075925,0.0000,06/23.9716/2024,2000,g 11.5,4.0
# From MPC182880
C/2023 R1 (PANSTARRS),h,04/13.5087/2026,149.3169,62.5600,144.2762,1.002122,3.569705,2000,6.0,4.0
# From MPEC 2024-L77
C/2023 R2 (PANSTARRS),h,08/12.1544/2024,30.6889,188.9043,337.3093,1.000267,0.905129,2000,10.5,4.0
# From MPEC 2023-UR6
A/2023 R3,e,12.0820,347.3444,86.9323,711.1197,0.0000520,0.99808977,0.0000,12/18.1885/2023,2000,g 20.0,2.0
# From MPEC 2024-YC7
C/2023 RN3 (ATLAS),e,10.3522,207.0659,130.5889,10.17038,0.0303877,0.49073088,24.2662,03/29.0/2025,2000,g  7.5,4.0
# From MPC182880
P/2023 S1,e,9.1576,317.2899,180.3024,3.844242,0.1307640,0.31854556,4.2939,03/29.0/2025,2000,g 11.5,4.0
# From MPEC 2023-XP6
C/2023 S2 (ATLAS),e,19.6972,229.5389,78.8805,174.1829,0.0004287,0.99391069,0.0000,10/15.6262/2023,2000,g 15.0,4.0
# From MPEC 2024-P23
C/2023 S3 (Lemmon),e,140.4949,233.8271,281.5426,28.44937,0.0064952,0.97084265,0.0000,01/19.6476/2024,2000,g 16.0,4.0
# From MPEC 2024-BE0
P/2023 T1 (PANSTARRS),e,6.6123,249.5765,202.8599,4.225908,0.1134551,0.33327893,35.1870,03/29.0/2025,2000,g 14.0,4.0
# From MPEC 2024-GJ3
C/2023 T2 (Borisov),e,48.5925,317.5286,111.2114,224.8647,0.0002923,0.99112330,0.0000,12/22.7678/2023,2000,g 14.5,4.0
# From MPC182881
C/2023 T3 (Fuls),e,27.2218,246.0014,302.8464,837.5972,0.0000407,0.99576369,0.0000,01/25.3432/2025,2000,g  8.5,4.0
# From MPEC 2024-VB7
C/2023 TD22 (Lemmon),e,170.4899,5.5613,32.5404,48.33999,0.0029325,0.95124616,0.5680,03/29.0/2025,2000,g 12.5,4.0
# From MPC182881
C/2023 U1 (Fuls),e,108.1457,305.8051,255.6388,2465,0.0000081,0.99798227,0.0000,10/12.8708/2024,2000,g  8.0,4.0
# From MPEC 2024-YC7
C/2023 V1 (Lemmon),h,07/13.0354/2025,102.0140,15.0395,103.3138,1.000359,5.092556,2000,8.5,4.0
# From MPC182881
P/2023 V2 (PANSTARRS),e,9.8883,95.4741,330.5262,7.222442,0.0507783,0.57020749,21.2893,03/29.0/2025,2000,g 13.5,4.0
# From MPEC 2024-A43
C/2023 V3 (PANSTARRS),e,40.6764,91.2927,291.8938,13.03696,0.0209382,0.65606929,12.5872,03/29.0/2025,2000,g 11.5,4.0
# From MPEC 2024-UQ8
C/2023 V4 (Camarasa-Duszanowicz),h,05/30.3834/2024,67.1279,66.3265,50.8667,1.001124,1.121851,2000,12.0,4.0
# From MPEC 2024-GJ3
C/2023 V5 (Leonard),h,12/13.9006/2023,73.5585,31.5174,56.9664,1.009412,0.846290,2000,21.5,4.0
# From MPEC 2025-A40
P/2023 V6 (PANSTARRS),e,3.9711,189.7130,192.7817,5.301519,0.0807428,0.17581887,68.2319,03/29.0/2025,2000,g 11.5,4.0
# From MPEC 2024-GJ3
C/2023 X1 (Leonard),e,110.5878,136.9980,321.4662,156.2630,0.0005046,0.99391496,0.0000,10/18.0035/2023,2000,g 13.5,3.2
# From MPC182881
C/2023 X2 (Lemmon),h,12/27.9985/2025,76.9859,66.3059,64.7437,1.000343,5.089190,2000,8.5,3.2
# From MPEC 2024-A43
P/2023 X3 (PANSTARRS),e,4.4834,62.0128,40.8568,4.245718,0.1126620,0.28621294,38.4057,03/29.0/2025,2000,g 15.5,4.0
# From MPC182881
C/2023 X4 (Hogan),e,11.5939,28.7685,100.5824,9.919903,0.0315459,0.63122331,9.7160,03/29.0/2025,2000,g 12.0,4.0
# From MPEC 2024-DA2
C/2023 X7 (PANSTARRS),h,05/15.1366/2025,69.0731,119.2001,354.3885,1.002773,4.820350,2000,9.0,4.0
# From MPEC 2024-JU4
P/2023 Y1 (Gibbs),e,6.3841,78.8559,51.4707,3.750071,0.1357203,0.44534213,65.8394,03/29.0/2025,2000,g 17.0,4.0
# From MPEC 2025-A40
P/2023 Y2 (Gibbs),e,6.9928,79.2283,16.8894,3.746944,0.1358903,0.39229494,81.1154,03/29.0/2025,2000,g 15.5,4.0
# From MPC182881
C/2024 A1 (ATLAS),h,06/13.7289/2025,94.4521,112.1382,353.3146,1.001934,3.875275,2000,7.0,4.0
# From MPC182881
C/2024 A2 (ATLAS),e,119.1161,78.1665,295.5155,32.40058,0.0053441,0.94198059,1.7857,03/29.0/2025,2000,g 12.5,4.0
# From MPC182881
C/2024 B1 (Lemmon),h,10/07.7120/2024,70.9035,79.1881,66.2141,1.000976,1.633764,2000,13.0,4.0
# From MPEC 2025-A40
C/2024 B2 (Lemmon),e,99.8599,294.3820,130.3440,2620,0.0000073,0.99844368,0.0000,10/06.0087/2023,2000,g 11.5,4.0
# From MPEC 2024-M41
C/2024 C1 (PANSTARRS),e,14.2269,83.8089,94.4719,10.57707,0.0286521,0.58278062,6.0191,03/29.0/2025,2000,g 11.5,4.0
# From MPEC 2024-JU4
C/2024 C2 (PANSTARRS),e,27.2844,66.4437,87.5592,16.22061,0.0150870,0.44568403,0.2738,03/29.0/2025,2000,g  6.0,4.0
# From MPC182881
C/2024 C3 (PANSTARRS),e,22.4567,359.7074,159.6735,11.66410,0.0247416,0.42448805,12.5317,03/29.0/2025,2000,g  9.0,4.0
# From MPEC 2024-Q20
C/2024 C4 (ATLAS),e,79.2839,220.6761,321.5032,83.58040,0.0012899,0.98240392,0.0000,01/30.1920/2024,2000,g 14.5,4.0
# From MPC182881
A/2024 D1,e,132.4510,179.6650,125.7694,7938,0.0000014,0.99915670,0.0000,12/03.3717/2027,2000,g 11.0,2.0
# From MPC182881
C/2024 E1 (Wierzchos),h,01/20.7697/2026,75.2386,108.0813,243.6380,1.000050,0.565898,2000,7.0,4.0
# From MPEC 2024-JU4
C/2024 E2 (Bok),e,155.6474,135.6506,358.1030,51.56376,0.0026619,0.85079024,1.3875,03/29.0/2025,2000,g  8.0,4.0
# From MPEC 2024-JU4
P/2024 F1 (PANSTARRS),e,7.0054,251.5414,229.5695,3.443819,0.1542210,0.45996997,80.2338,03/29.0/2025,2000,g 16.0,4.0
# From MPEC 2024-Q20
C/2024 F2 (PANSTARRS),e,13.7424,138.9410,112.8943,9.947458,0.0314149,0.60109877,7.6336,03/29.0/2025,2000,g 11.0,4.0
# From MPEC 2024-UA9
P/2024 FG9 (Nanshan-Hahn),e,1.7312,253.0425,245.9289,3.257403,0.1676474,0.50989678,52.4088,03/29.0/2025,2000,g 14.0,4.0
# From MPEC 2024-PC5
C/2024 G1 (Wierzchos),e,95.3961,30.6035,128.2221,122.5714,0.0007263,0.96793544,0.1154,03/29.0/2025,2000,g 10.0,4.0
# From MPC182882
C/2024 G2 (ATLAS),e,122.1277,171.3946,328.7350,732.4263,0.0000497,0.99269801,0.0000,06/13.5207/2025,2000,g  7.0,4.0
# From MPEC 2025-A40
C/2024 G3 (ATLAS),h,01/13.4282/2025,116.8471,220.3396,108.1235,1.000008,0.093542,2000,9.0,4.0
# From MPC182882
C/2024 G4 (PANSTARRS),e,33.0262,152.9847,131.4228,3099,0.0000057,0.99841897,0.0000,03/21.6595/2026,2000,g  8.0,4.0
# From MPEC 2024-JC6
C/2024 G5 (Leonard),e,50.3870,316.3946,209.5741,563.4381,0.0000737,0.99475905,0.0000,09/07.0369/2024,2000,g 13.0,4.0
# From MPEC 2024-RQ6
C/2024 G6 (ATLAS),h,02/20.8143/2026,120.4565,250.9520,23.4467,1.002257,6.429543,2000,5.5,4.0
# From MPEC 2024-Q20
